CCSDS_OMM_VERS = 2.0
CREATION_DATE  = 
ORIGINATOR     = 

OBJECT_NAME    = STARLINK-36905
OBJECT_ID      = 2026-050K
CENTER_NAME    = EARTH
REF_FRAME      = TEME
TIME_SYSTEM    = UTC
MEAN_ELEMENT_THEORY = SGP/SGP4

EPOCH          = 2026-04-02T15:24:58.930272
MEAN_MOTION    = 15.80987642
ECCENTRICITY   = .0001166
INCLINATION    = 53.1580
RA_OF_ASC_NODE = 161.7217
ARG_OF_PERICENTER = 88.0467
MEAN_ANOMALY   = 272.0690

EPHEMERIS_TYPE = 0
CLASSIFICATION_TYPE = U
NORAD_CAT_ID   = 68176
ELEMENT_SET_NO = 999
REV_AT_EPOCH   = 426
BSTAR          = .1189E-2
MEAN_MOTION_DOT = .241935E-2
MEAN_MOTION_DDOT = 0

CCSDS_OMM_VERS = 2.0
CREATION_DATE  = 
ORIGINATOR     = 

OBJECT_NAME    = STARLINK-36668
OBJECT_ID      = 2026-050L
CENTER_NAME    = EARTH
REF_FRAME      = TEME
TIME_SYSTEM    = UTC
MEAN_ELEMENT_THEORY = SGP/SGP4

EPOCH          = 2026-04-02T15:23:54.231360
MEAN_MOTION    = 15.80976108
ECCENTRICITY   = .000114
INCLINATION    = 53.1584
RA_OF_ASC_NODE = 161.7165
ARG_OF_PERICENTER = 80.5175
MEAN_ANOMALY   = 279.5977

EPHEMERIS_TYPE = 0
CLASSIFICATION_TYPE = U
NORAD_CAT_ID   = 68177
ELEMENT_SET_NO = 999
REV_AT_EPOCH   = 426
BSTAR          = .10887E-2
MEAN_MOTION_DOT = .220816E-2
MEAN_MOTION_DDOT = 0

CCSDS_OMM_VERS = 2.0
CREATION_DATE  = 
ORIGINATOR     = 

OBJECT_NAME    = STARLINK-36677
OBJECT_ID      = 2026-050M
CENTER_NAME    = EARTH
REF_FRAME      = TEME
TIME_SYSTEM    = UTC
MEAN_ELEMENT_THEORY = SGP/SGP4

EPOCH          = 2026-04-02T15:22:49.160928
MEAN_MOTION    = 15.81022064
ECCENTRICITY   = .0000923
INCLINATION    = 53.1585
RA_OF_ASC_NODE = 161.7109
ARG_OF_PERICENTER = 89.4873
MEAN_ANOMALY   = 270.6255

EPHEMERIS_TYPE = 0
CLASSIFICATION_TYPE = U
NORAD_CAT_ID   = 68178
ELEMENT_SET_NO = 999
REV_AT_EPOCH   = 426
BSTAR          = .16031E-2
MEAN_MOTION_DOT = .330378E-2
MEAN_MOTION_DDOT = 0

CCSDS_OMM_VERS = 2.0
CREATION_DATE  = 
ORIGINATOR     = 

OBJECT_NAME    = STARLINK-37052
OBJECT_ID      = 2026-050N
CENTER_NAME    = EARTH
REF_FRAME      = TEME
TIME_SYSTEM    = UTC
MEAN_ELEMENT_THEORY = SGP/SGP4

EPOCH          = 2026-04-02T15:21:44.405856
MEAN_MOTION    = 15.81008967
ECCENTRICITY   = .0000912
INCLINATION    = 53.1580
RA_OF_ASC_NODE = 161.7065
ARG_OF_PERICENTER = 92.6200
MEAN_ANOMALY   = 267.4927

EPHEMERIS_TYPE = 0
CLASSIFICATION_TYPE = U
NORAD_CAT_ID   = 68179
ELEMENT_SET_NO = 999
REV_AT_EPOCH   = 426
BSTAR          = .14493E-2
MEAN_MOTION_DOT = .297271E-2
MEAN_MOTION_DDOT = 0

CCSDS_OMM_VERS = 2.0
CREATION_DATE  = 
ORIGINATOR     = 

OBJECT_NAME    = STARLINK-37035
OBJECT_ID      = 2026-050P
CENTER_NAME    = EARTH
REF_FRAME      = TEME
TIME_SYSTEM    = UTC
MEAN_ELEMENT_THEORY = SGP/SGP4

EPOCH          = 2026-04-02T15:20:39.540192
MEAN_MOTION    = 15.81018000
ECCENTRICITY   = .0001054
INCLINATION    = 53.1582
RA_OF_ASC_NODE = 161.7013
ARG_OF_PERICENTER = 70.5692
MEAN_ANOMALY   = 289.5445

EPHEMERIS_TYPE = 0
CLASSIFICATION_TYPE = U
NORAD_CAT_ID   = 68180
ELEMENT_SET_NO = 999
REV_AT_EPOCH   = 426
BSTAR          = .15101E-2
MEAN_MOTION_DOT = .310383E-2
MEAN_MOTION_DDOT = 0

CCSDS_OMM_VERS = 2.0
CREATION_DATE  = 
ORIGINATOR     = 

OBJECT_NAME    = STARLINK-37032
OBJECT_ID      = 2026-050Q
CENTER_NAME    = EARTH
REF_FRAME      = TEME
TIME_SYSTEM    = UTC
MEAN_ELEMENT_THEORY = SGP/SGP4

EPOCH          = 2026-04-02T15:19:34.747968
MEAN_MOTION    = 15.81022135
ECCENTRICITY   = .0000809
INCLINATION    = 53.1583
RA_OF_ASC_NODE = 161.6965
ARG_OF_PERICENTER = 93.1657
MEAN_ANOMALY   = 266.9459

EPHEMERIS_TYPE = 0
CLASSIFICATION_TYPE = U
NORAD_CAT_ID   = 68181
ELEMENT_SET_NO = 999
REV_AT_EPOCH   = 426
BSTAR          = .15979E-2
MEAN_MOTION_DOT = .329267E-2
MEAN_MOTION_DDOT = 0

CCSDS_OMM_VERS = 2.0
CREATION_DATE  = 
ORIGINATOR     = 

OBJECT_NAME    = STARLINK-37082
OBJECT_ID      = 2026-050R
CENTER_NAME    = EARTH
REF_FRAME      = TEME
TIME_SYSTEM    = UTC
MEAN_ELEMENT_THEORY = SGP/SGP4

EPOCH          = 2026-04-02T15:18:30.050784
MEAN_MOTION    = 15.80971778
ECCENTRICITY   = .0000969
INCLINATION    = 53.1584
RA_OF_ASC_NODE = 161.6910
ARG_OF_PERICENTER = 82.2005
MEAN_ANOMALY   = 277.9128

EPHEMERIS_TYPE = 0
CLASSIFICATION_TYPE = U
NORAD_CAT_ID   = 68182
ELEMENT_SET_NO = 999
REV_AT_EPOCH   = 426
BSTAR          = .10518E-2
MEAN_MOTION_DOT = .213056E-2
MEAN_MOTION_DDOT = 0

CCSDS_OMM_VERS = 2.0
CREATION_DATE  = 
ORIGINATOR     = 

OBJECT_NAME    = STARLINK-37102
OBJECT_ID      = 2026-050S
CENTER_NAME    = EARTH
REF_FRAME      = TEME
TIME_SYSTEM    = UTC
MEAN_ELEMENT_THEORY = SGP/SGP4

EPOCH          = 2026-04-02T16:48:27.069984
MEAN_MOTION    = 15.81030211
ECCENTRICITY   = .0000937
INCLINATION    = 53.1583
RA_OF_ASC_NODE = 161.3687
ARG_OF_PERICENTER = 91.2096
MEAN_ANOMALY   = 268.9034

EPHEMERIS_TYPE = 0
CLASSIFICATION_TYPE = U
NORAD_CAT_ID   = 68183
ELEMENT_SET_NO = 999
REV_AT_EPOCH   = 427
BSTAR          = .16019E-2
MEAN_MOTION_DOT = .33025E-2
MEAN_MOTION_DDOT = 0

CCSDS_OMM_VERS = 2.0
CREATION_DATE  = 
ORIGINATOR     = 

OBJECT_NAME    = STARLINK-36964
OBJECT_ID      = 2026-050T
CENTER_NAME    = EARTH
REF_FRAME      = TEME
TIME_SYSTEM    = UTC
MEAN_ELEMENT_THEORY = SGP/SGP4

EPOCH          = 2026-04-02T16:47:22.239744
MEAN_MOTION    = 15.81017502
ECCENTRICITY   = .0000937
INCLINATION    = 53.1583
RA_OF_ASC_NODE = 161.3639
ARG_OF_PERICENTER = 60.4187
MEAN_ANOMALY   = 299.6929

EPHEMERIS_TYPE = 0
CLASSIFICATION_TYPE = U
NORAD_CAT_ID   = 68184
ELEMENT_SET_NO = 999
REV_AT_EPOCH   = 427
BSTAR          = .1344E-2
MEAN_MOTION_DOT = .275019E-2
MEAN_MOTION_DDOT = 0

CCSDS_OMM_VERS = 2.0
CREATION_DATE  = 
ORIGINATOR     = 

OBJECT_NAME    = STARLINK-37061
OBJECT_ID      = 2026-050U
CENTER_NAME    = EARTH
REF_FRAME      = TEME
TIME_SYSTEM    = UTC
MEAN_ELEMENT_THEORY = SGP/SGP4

EPOCH          = 2026-04-02T16:46:17.194368
MEAN_MOTION    = 15.81035560
ECCENTRICITY   = .0000697
INCLINATION    = 53.1583
RA_OF_ASC_NODE = 161.3596
ARG_OF_PERICENTER = 114.0104
MEAN_ANOMALY   = 246.0992

EPHEMERIS_TYPE = 0
CLASSIFICATION_TYPE = U
NORAD_CAT_ID   = 68185
ELEMENT_SET_NO = 999
REV_AT_EPOCH   = 427
BSTAR          = .14809E-2
MEAN_MOTION_DOT = .304394E-2
MEAN_MOTION_DDOT = 0

CCSDS_OMM_VERS = 2.0
CREATION_DATE  = 
ORIGINATOR     = 

OBJECT_NAME    = STARLINK-37079
OBJECT_ID      = 2026-050V
CENTER_NAME    = EARTH
REF_FRAME      = TEME
TIME_SYSTEM    = UTC
MEAN_ELEMENT_THEORY = SGP/SGP4

EPOCH          = 2026-04-02T16:45:12.798720
MEAN_MOTION    = 15.80981818
ECCENTRICITY   = .0001275
INCLINATION    = 53.1584
RA_OF_ASC_NODE = 161.3544
ARG_OF_PERICENTER = 85.3323
MEAN_ANOMALY   = 274.7845

EPHEMERIS_TYPE = 0
CLASSIFICATION_TYPE = U
NORAD_CAT_ID   = 68186
ELEMENT_SET_NO = 999
REV_AT_EPOCH   = 427
BSTAR          = .95461E-3
MEAN_MOTION_DOT = .192944E-2
MEAN_MOTION_DDOT = 0

CCSDS_OMM_VERS = 2.0
CREATION_DATE  = 
ORIGINATOR     = 

OBJECT_NAME    = STARLINK-37006
OBJECT_ID      = 2026-050W
CENTER_NAME    = EARTH
REF_FRAME      = TEME
TIME_SYSTEM    = UTC
MEAN_ELEMENT_THEORY = SGP/SGP4

EPOCH          = 2026-04-02T16:44:07.762848
MEAN_MOTION    = 15.81021423
ECCENTRICITY   = .000118
INCLINATION    = 53.1582
RA_OF_ASC_NODE = 161.3497
ARG_OF_PERICENTER = 81.0919
MEAN_ANOMALY   = 279.0237

EPHEMERIS_TYPE = 0
CLASSIFICATION_TYPE = U
NORAD_CAT_ID   = 68187
ELEMENT_SET_NO = 999
REV_AT_EPOCH   = 427
BSTAR          = .13494E-2
MEAN_MOTION_DOT = .276214E-2
MEAN_MOTION_DDOT = 0

CCSDS_OMM_VERS = 2.0
CREATION_DATE  = 
ORIGINATOR     = 

OBJECT_NAME    = STARLINK-36340
OBJECT_ID      = 2026-050X
CENTER_NAME    = EARTH
REF_FRAME      = TEME
TIME_SYSTEM    = UTC
MEAN_ELEMENT_THEORY = SGP/SGP4

EPOCH          = 2026-04-02T16:43:02.885952
MEAN_MOTION    = 15.81043028
ECCENTRICITY   = .0000929
INCLINATION    = 53.1584
RA_OF_ASC_NODE = 161.3443
ARG_OF_PERICENTER = 96.0979
MEAN_ANOMALY   = 264.0150

EPHEMERIS_TYPE = 0
CLASSIFICATION_TYPE = U
NORAD_CAT_ID   = 68188
ELEMENT_SET_NO = 999
REV_AT_EPOCH   = 417
BSTAR          = .1634E-2
MEAN_MOTION_DOT = .337353E-2
MEAN_MOTION_DDOT = 0

CCSDS_OMM_VERS = 2.0
CREATION_DATE  = 
ORIGINATOR     = 

OBJECT_NAME    = STARLINK-36305
OBJECT_ID      = 2026-050Y
CENTER_NAME    = EARTH
REF_FRAME      = TEME
TIME_SYSTEM    = UTC
MEAN_ELEMENT_THEORY = SGP/SGP4

EPOCH          = 2026-04-02T16:41:58.166304
MEAN_MOTION    = 15.81027973
ECCENTRICITY   = .0001046
INCLINATION    = 53.1582
RA_OF_ASC_NODE = 161.3396
ARG_OF_PERICENTER = 93.7690
MEAN_ANOMALY   = 266.3453

EPHEMERIS_TYPE = 0
CLASSIFICATION_TYPE = U
NORAD_CAT_ID   = 68189
ELEMENT_SET_NO = 999
REV_AT_EPOCH   = 417
BSTAR          = .14842E-2
MEAN_MOTION_DOT = .304992E-2
MEAN_MOTION_DDOT = 0

CCSDS_OMM_VERS = 2.0
CREATION_DATE  = 
ORIGINATOR     = 

OBJECT_NAME    = STARLINK-37071
OBJECT_ID      = 2026-050Z
CENTER_NAME    = EARTH
REF_FRAME      = TEME
TIME_SYSTEM    = UTC
MEAN_ELEMENT_THEORY = SGP/SGP4

EPOCH          = 2026-04-02T15:08:46.684896
MEAN_MOTION    = 15.81012725
ECCENTRICITY   = .0001052
INCLINATION    = 53.1583
RA_OF_ASC_NODE = 161.6459
ARG_OF_PERICENTER = 74.0560
MEAN_ANOMALY   = 286.0578

EPHEMERIS_TYPE = 0
CLASSIFICATION_TYPE = U
NORAD_CAT_ID   = 68190
ELEMENT_SET_NO = 999
REV_AT_EPOCH   = 426
BSTAR          = .15069E-2
MEAN_MOTION_DOT = .309622E-2
MEAN_MOTION_DDOT = 0

